TEIKYOSAT-4 (OORURI)    
1 49396U 21102B   26068.67534185  .00002438  00000+0  15740-3 0  9994
2 49396  97.3797 101.9931 0010345 276.5421  83.4630 15.09119208237719
STARLINK-3044           
1 49438U 21104AG  26068.68528467 -.00001743  00000+0 -91470-4 0  9995
2 49438  53.2183 209.0750 0001257  84.3371 275.7764 15.08823972238912
